IRIDIUM 119             
1 42959U 17061E   24012.57813134  .00000468  00000+0  16011-3 0  9994
2 42959  86.3953  35.7560 0002372  87.6540 272.4927 14.34219809327731
IRIDIUM 107             
1 42960U 17061F   24012.59715707  .00000464  00000+0  15852-3 0  9993
2 42960  86.3954  35.7639 0002054  84.6879 275.4551 14.34220390327744
IRIDIUM 132             
1 42961U 17061G   24012.53372957  .00000461  00000+0  15742-3 0  9999
2 42961  86.3954  35.7760 0002125  82.6379 277.5058 14.34220471327736
IRIDIUM 136             
1 42962U 17061H   24012.56544579  .00000458  00000+0  15633-3 0  9999
2 42962  86.3953  35.7652 0002462  91.2831 268.8647 14.34220198327754
IRIDIUM 139             
1 42963U 17061J   24012.57178464  .00000472  00000+0  16143-3 0  9990
2 42963  86.3955  35.8103 0002118  86.7498 273.3940 14.34221753327761
IRIDIUM 125             
1 42964U 17061K   24012.55909889  .00000475  00000+0  16251-3 0  9995
2 42964  86.3956  35.8604 0002412  84.5670 275.5801 14.34221710327778
IRIDIUM 135             
1 43070U 17083A   24012.39369152  .00000315  00000+0  10552-3 0  9994
2 43070  86.3985 332.6363 0001904  89.6084 270.5330 14.34219331317046
IRIDIUM 138             
1 43071U 17083B   24012.41906348  .00000372  00000+0  12561-3 0  9997
2 43071  86.3977 332.3635 0002570  84.7414 275.4075 14.34216494317036
